{
"type": "FeatureCollection",
"name": "baikalsk_railways",
"crs": { "type": "name", "properties": { "name": "urn:ogc:def:crs:OGC:1.3:CRS84" } },
"features": [
{ "type": "Feature", "properties": { }, "geometry": { "type": "LineString", "coordinates": [ [ 104.1179849, 51.5218093 ], [ 104.1209319, 51.521353 ], [ 104.1284005, 51.5199965 ], [ 104.1320229, 51.5193131 ], [ 104.1359741, 51.5186563 ], [ 104.1370769, 51.5183703 ], [ 104.1378966, 51.5180558 ], [ 104.1385107, 51.5177757 ], [ 104.1390268, 51.5175075 ], [ 104.1403889, 51.5167267 ] ] } },
{ "type": "Feature", "properties": { }, "geometry": { "type": "LineString", "coordinates": [ [ 104.1405468, 51.5168357 ], [ 104.1391418, 51.517605 ], [ 104.1386086, 51.5178696 ], [ 104.1379806, 51.5181397 ], [ 104.1370994, 51.518428 ], [ 104.1359749, 51.518699 ], [ 104.1320433, 51.5193562 ], [ 104.1284212, 51.5200396 ], [ 104.118, 51.5219559 ] ] } },
{ "type": "Feature", "properties": { }, "geometry": { "type": "LineString", "coordinates": [ [ 104.1406648, 51.5165609 ], [ 104.141319, 51.5161915 ], [ 104.1420263, 51.5158208 ], [ 104.1430706, 51.5152652 ], [ 104.1439062, 51.5147855 ], [ 104.1457948, 51.5136083 ], [ 104.1469564, 51.5128624 ], [ 104.1478117, 51.5123005 ], [ 104.1489364, 51.5116038 ], [ 104.149702, 51.5112391 ], [ 104.150626, 51.5109203 ], [ 104.1513969, 51.5107002 ], [ 104.1521572, 51.5105424 ], [ 104.1531498, 51.5103946 ], [ 104.1543378, 51.5102993 ], [ 104.1559374, 51.5102525 ], [ 104.1567836, 51.5101829 ], [ 104.1573055, 51.5101256 ], [ 104.1579978, 51.5100494 ], [ 104.1591027, 51.5099633 ] ] } },
{ "type": "Feature", "properties": { }, "geometry": { "type": "LineString", "coordinates": [ [ 104.1591046, 51.510156 ], [ 104.1579963, 51.5102045 ], [ 104.1568752, 51.5102546 ], [ 104.1559419, 51.5102895 ], [ 104.1543434, 51.510335 ], [ 104.1531603, 51.51043 ], [ 104.1521731, 51.510577 ], [ 104.1514181, 51.5107336 ], [ 104.1506521, 51.5109524 ], [ 104.1497337, 51.5112692 ], [ 104.1489745, 51.511631 ], [ 104.1478531, 51.5123256 ], [ 104.1469981, 51.5128873 ], [ 104.1458352, 51.513634 ], [ 104.1439463, 51.5148121 ], [ 104.1424577, 51.5156783 ], [ 104.1421071, 51.5158911 ], [ 104.1408372, 51.5166619 ] ] } },
{ "type": "Feature", "properties": { }, "geometry": { "type": "LineString", "coordinates": [ [ 104.160243, 51.5101245 ], [ 104.1591046, 51.510156 ] ] } },
{ "type": "Feature", "properties": { }, "geometry": { "type": "LineString", "coordinates": [ [ 104.1591027, 51.5099633 ], [ 104.1601379, 51.5099148 ] ] } },
{ "type": "Feature", "properties": { }, "geometry": { "type": "LineString", "coordinates": [ [ 104.1403889, 51.5167267 ], [ 104.1406648, 51.5165609 ] ] } },
{ "type": "Feature", "properties": { }, "geometry": { "type": "LineString", "coordinates": [ [ 104.1408372, 51.5166619 ], [ 104.1405468, 51.5168357 ] ] } },
{ "type": "Feature", "properties": { }, "geometry": { "type": "LineString", "coordinates": [ [ 104.2264193, 51.5005346 ], [ 104.2251976, 51.5007005 ], [ 104.2237331, 51.5008822 ], [ 104.2224649, 51.5010098 ], [ 104.221561, 51.501075 ], [ 104.220609, 51.5011116 ], [ 104.2198395, 51.5011194 ], [ 104.2187574, 51.5011158 ], [ 104.2174566, 51.5010697 ], [ 104.2157977, 51.5009967 ], [ 104.2149868, 51.5009601 ], [ 104.2142543, 51.500927 ], [ 104.2140909, 51.5009196 ], [ 104.2139502, 51.5009133 ], [ 104.2128857, 51.5008639 ], [ 104.2120219, 51.500835 ], [ 104.2111736, 51.500798 ], [ 104.2103646, 51.5007782 ], [ 104.2089078, 51.5008013 ], [ 104.2077739, 51.5008883 ], [ 104.2066774, 51.501021 ], [ 104.2054625, 51.5012295 ], [ 104.2042689, 51.5014966 ], [ 104.2004599, 51.5024377 ], [ 104.196585, 51.5033857 ], [ 104.1888095, 51.5053059 ], [ 104.1796002, 51.5076035 ], [ 104.1771799, 51.5081887 ], [ 104.1726608, 51.5093107 ], [ 104.1716953, 51.5095391 ], [ 104.1709943, 51.5096605 ], [ 104.170202, 51.5097311 ], [ 104.1690661, 51.5097886 ], [ 104.1673679, 51.509861 ], [ 104.1647609, 51.5099681 ], [ 104.1624887, 51.5100255 ], [ 104.160243, 51.5101245 ] ] } },
{ "type": "Feature", "properties": { }, "geometry": { "type": "LineString", "coordinates": [ [ 104.1601379, 51.5099148 ], [ 104.1624806, 51.5099131 ], [ 104.1647697, 51.5099154 ], [ 104.1673663, 51.5098214 ], [ 104.1690615, 51.5097528 ], [ 104.1701944, 51.5096955 ], [ 104.1709804, 51.5096221 ], [ 104.1716791, 51.5095022 ], [ 104.1726359, 51.5092701 ], [ 104.177161, 51.5081527 ], [ 104.179579, 51.50757 ], [ 104.1887882, 51.5052725 ], [ 104.1965636, 51.5033523 ], [ 104.2004384, 51.5024043 ], [ 104.2042484, 51.501463 ], [ 104.2054451, 51.5011952 ], [ 104.2066641, 51.500986 ], [ 104.207765, 51.5008527 ], [ 104.2089272, 51.5007605 ], [ 104.2096717, 51.500741 ], [ 104.2104163, 51.5007385 ], [ 104.2112121, 51.5007578 ], [ 104.2120138, 51.5007881 ], [ 104.2128865, 51.5008192 ], [ 104.2158106, 51.5009432 ], [ 104.2161616, 51.5009576 ], [ 104.2171591, 51.5009985 ], [ 104.2187632, 51.5010569 ], [ 104.2198356, 51.501071 ], [ 104.2205978, 51.5010548 ], [ 104.2215518, 51.5010257 ], [ 104.2224583, 51.5009603 ], [ 104.2237159, 51.5008323 ], [ 104.2251742, 51.5006293 ], [ 104.2263971, 51.5004637 ] ] } },
{ "type": "Feature", "properties": { }, "geometry": { "type": "LineString", "coordinates": [ [ 104.1983946, 51.5068677 ], [ 104.197294, 51.5074152 ], [ 104.1967677, 51.5075918 ], [ 104.1956437, 51.5079691 ], [ 104.1947489, 51.508265 ], [ 104.1936055, 51.508643 ], [ 104.1932805, 51.508708 ], [ 104.1928863, 51.5087604 ], [ 104.1926912, 51.5087701 ], [ 104.1924962, 51.5087723 ], [ 104.1920979, 51.5087665 ], [ 104.1882217, 51.5086286 ], [ 104.1862793, 51.508532 ], [ 104.1851704, 51.5084389 ], [ 104.184697, 51.5083944 ], [ 104.1835625, 51.5082877 ], [ 104.1826292, 51.5081284 ], [ 104.1824046, 51.5081042 ], [ 104.1821271, 51.5081079 ], [ 104.1817788, 51.5081302 ], [ 104.1816046, 51.5081464 ], [ 104.1814386, 51.5081879 ], [ 104.1809622, 51.5083725 ], [ 104.1805428, 51.5085673 ], [ 104.1756963, 51.5113131 ], [ 104.1754543, 51.5113902 ], [ 104.1751635, 51.5114421 ], [ 104.174716, 51.5115002 ], [ 104.1745982, 51.5115155 ], [ 104.1732264, 51.5116827 ], [ 104.1728713, 51.511708 ], [ 104.1724756, 51.5117282 ], [ 104.1722344, 51.5117207 ], [ 104.1719769, 51.5116827 ], [ 104.1717931, 51.5116325 ], [ 104.1709983, 51.5114157 ], [ 104.1705218, 51.5113353 ], [ 104.1703079, 51.5113078 ], [ 104.1700289, 51.5112803 ], [ 104.1664444, 51.5112694 ] ] } },
{ "type": "Feature", "properties": { }, "geometry": { "type": "LineString", "coordinates": [ [ 104.2161233, 51.5010572 ], [ 104.2155315, 51.5010577 ], [ 104.2150165, 51.5010726 ], [ 104.2126304, 51.5012264 ], [ 104.2112303, 51.5012882 ], [ 104.2094765, 51.5013069 ], [ 104.2088347, 51.5013184 ], [ 104.2082091, 51.5013653 ], [ 104.2077837, 51.5014051 ], [ 104.2073584, 51.5014652 ], [ 104.2069453, 51.5015355 ], [ 104.2065484, 51.5016209 ], [ 104.2058459, 51.5018058 ], [ 104.2052085, 51.5019957 ], [ 104.2047313, 51.5021761 ], [ 104.2043354, 51.5023565 ], [ 104.2039611, 51.502538 ], [ 104.2036355, 51.5027194 ], [ 104.20331, 51.5029034 ], [ 104.2030332, 51.5030874 ], [ 104.2021573, 51.5037238 ], [ 104.2010499, 51.5046074 ], [ 104.2000401, 51.5055163 ], [ 104.1987653, 51.5065593 ], [ 104.1983946, 51.5068677 ], [ 104.1980251, 51.5071481 ], [ 104.1978228, 51.5073237 ], [ 104.1976693, 51.5074993 ], [ 104.1975565, 51.5076775 ], [ 104.1974762, 51.5078556 ], [ 104.1973954, 51.5080852 ], [ 104.1973635, 51.5083147 ], [ 104.1973535, 51.5083775 ], [ 104.1972873, 51.508794 ], [ 104.1972888, 51.5088536 ], [ 104.1973118, 51.5098025 ], [ 104.197335, 51.5107555 ] ] } },
{ "type": "Feature", "properties": { }, "geometry": { "type": "LineString", "coordinates": [ [ 104.1173413, 51.5219232 ], [ 104.1179849, 51.5218093 ] ] } },
{ "type": "Feature", "properties": { }, "geometry": { "type": "LineString", "coordinates": [ [ 104.118, 51.5219559 ], [ 104.1174026, 51.5220575 ] ] } },
{ "type": "Feature", "properties": { }, "geometry": { "type": "LineString", "coordinates": [ [ 104.1956579, 51.5145431 ], [ 104.1886257, 51.5187273 ] ] } },
{ "type": "Feature", "properties": { }, "geometry": { "type": "LineString", "coordinates": [ [ 104.1973118, 51.5098025 ], [ 104.197253, 51.5101695 ], [ 104.1971798, 51.5103643 ], [ 104.1971188, 51.5104782 ], [ 104.1970416, 51.5105743 ], [ 104.1968749, 51.5107616 ], [ 104.1966757, 51.5109488 ], [ 104.1964114, 51.5111462 ], [ 104.1963017, 51.5112246 ] ] } },
{ "type": "Feature", "properties": { }, "geometry": { "type": "LineString", "coordinates": [ [ 104.1972888, 51.5088536 ], [ 104.1972164, 51.5091852 ], [ 104.1971148, 51.5094357 ], [ 104.1969847, 51.5097166 ], [ 104.1969034, 51.5099013 ], [ 104.196757, 51.5101113 ], [ 104.19657, 51.510377 ], [ 104.1964277, 51.5105111 ], [ 104.1961797, 51.5107363 ], [ 104.1959642, 51.510921 ], [ 104.1956797, 51.511131 ], [ 104.1949316, 51.5115763 ], [ 104.1932001, 51.5126493 ], [ 104.1920858, 51.5133398 ], [ 104.1905694, 51.5142304 ], [ 104.1905191, 51.5142596 ], [ 104.1899496, 51.5145909 ], [ 104.1895083, 51.5148477 ], [ 104.189057, 51.5151108 ] ] } },
{ "type": "Feature", "properties": { }, "geometry": { "type": "LineString", "coordinates": [ [ 104.1932001, 51.5126493 ], [ 104.1927403, 51.5128844 ], [ 104.1920329, 51.5132968 ], [ 104.1912631, 51.5137493 ], [ 104.1902726, 51.5143316 ], [ 104.1885448, 51.5153334 ], [ 104.1883821, 51.5154372 ], [ 104.1881707, 51.515589 ], [ 104.1879431, 51.5157534 ], [ 104.1875934, 51.5159735 ], [ 104.1873251, 51.5161278 ], [ 104.1865021, 51.5165946 ], [ 104.1846175, 51.5176635 ], [ 104.1838362, 51.5181359 ], [ 104.1837516, 51.5181871 ], [ 104.1821172, 51.5191383 ] ] } },
{ "type": "Feature", "properties": { }, "geometry": { "type": "LineString", "coordinates": [ [ 104.1838362, 51.5181359 ], [ 104.1836499, 51.5182959 ], [ 104.1834385, 51.5184831 ], [ 104.1831661, 51.5187665 ], [ 104.1830238, 51.5189056 ], [ 104.1828775, 51.5190245 ], [ 104.182658, 51.5191611 ], [ 104.1823815, 51.5193205 ] ] } },
{ "type": "Feature", "properties": { }, "geometry": { "type": "LineString", "coordinates": [ [ 104.1865021, 51.5165946 ], [ 104.1864063, 51.5166743 ], [ 104.1863006, 51.516778 ], [ 104.186199, 51.5168919 ], [ 104.1860851, 51.5170133 ], [ 104.1859347, 51.5171499 ], [ 104.1858534, 51.5172056 ] ] } },
{ "type": "Feature", "properties": { }, "geometry": { "type": "LineString", "coordinates": [ [ 104.1899496, 51.5145909 ], [ 104.1896506, 51.5148148 ], [ 104.189492, 51.5149236 ], [ 104.1892765, 51.5150754 ] ] } },
{ "type": "Feature", "properties": { }, "geometry": { "type": "LineString", "coordinates": [ [ 104.1905191, 51.5142596 ], [ 104.1902685, 51.5144606 ], [ 104.1900978, 51.5145997 ], [ 104.1899433, 51.5147439 ], [ 104.1898294, 51.5148679 ] ] } },
{ "type": "Feature", "properties": { }, "geometry": { "type": "LineString", "coordinates": [ [ 104.1879431, 51.5161835 ], [ 104.1877642, 51.5163631 ], [ 104.1875284, 51.5166035 ], [ 104.1873861, 51.5167552 ], [ 104.1873007, 51.5168337 ] ] } },
{ "type": "Feature", "properties": { }, "geometry": { "type": "LineString", "coordinates": [ [ 104.1912631, 51.5137493 ], [ 104.1908369, 51.5139621 ], [ 104.1904588, 51.5141518 ], [ 104.1899343, 51.5144175 ], [ 104.1891497, 51.5148779 ] ] } },
{ "type": "Feature", "properties": { }, "geometry": { "type": "LineString", "coordinates": [ [ 104.1973535, 51.5083775 ], [ 104.1972521, 51.5086706 ], [ 104.197126, 51.5088886 ], [ 104.1969905, 51.5090397 ], [ 104.1968504, 51.5091589 ], [ 104.1965936, 51.5093478 ], [ 104.1963648, 51.5094815 ], [ 104.1960385, 51.5096825 ], [ 104.1959071, 51.5097635 ], [ 104.1935908, 51.5111673 ], [ 104.1926148, 51.5117428 ], [ 104.1901864, 51.5131669 ], [ 104.1900278, 51.5132716 ], [ 104.1898828, 51.5133674 ] ] } },
{ "type": "Feature", "properties": { }, "geometry": { "type": "LineString", "coordinates": [ [ 104.1960385, 51.5096825 ], [ 104.1956409, 51.5098826 ], [ 104.195286, 51.5100745 ], [ 104.1937309, 51.5109871 ], [ 104.1919236, 51.5120915 ] ] } },
{ "type": "Feature", "properties": { }, "geometry": { "type": "LineString", "coordinates": [ [ 104.1959251, 51.5144803 ], [ 104.1955308, 51.5147106 ], [ 104.1931565, 51.5161122 ], [ 104.1900831, 51.5179337 ], [ 104.1886561, 51.5188115 ], [ 104.1883634, 51.518981 ], [ 104.1877332, 51.5193478 ], [ 104.1868225, 51.5198183 ], [ 104.1866274, 51.5199145 ] ] } },
{ "type": "Feature", "properties": { }, "geometry": { "type": "LineString", "coordinates": [ [ 104.1732264, 51.5116827 ], [ 104.1723357, 51.5117973 ], [ 104.17213, 51.5118181 ], [ 104.1710103, 51.5119314 ], [ 104.1706526, 51.5119921 ], [ 104.170368, 51.5120807 ], [ 104.1701403, 51.5121591 ], [ 104.1699005, 51.5122831 ], [ 104.1697378, 51.512402 ], [ 104.1695752, 51.5125386 ], [ 104.1693435, 51.5127942 ], [ 104.1692906, 51.5128726 ] ] } },
{ "type": "Feature", "properties": { }, "geometry": { "type": "LineString", "coordinates": [ [ 104.1710103, 51.5119314 ], [ 104.170677, 51.5119466 ], [ 104.1702176, 51.5119542 ], [ 104.1684938, 51.5120503 ], [ 104.1677905, 51.5120503 ], [ 104.1674449, 51.5120351 ], [ 104.1660301, 51.5120174 ] ] } },
{ "type": "Feature", "properties": { }, "geometry": { "type": "LineString", "coordinates": [ [ 104.174716, 51.5115002 ], [ 104.1743725, 51.5115797 ], [ 104.1742424, 51.5116328 ], [ 104.1741204, 51.5116936 ], [ 104.1737871, 51.5118934 ] ] } },
{ "type": "Feature", "properties": { }, "geometry": { "type": "LineString", "coordinates": [ [ 104.1756963, 51.5113131 ], [ 104.1755108, 51.5114001 ], [ 104.1751978, 51.5115772 ], [ 104.1739578, 51.5122679 ], [ 104.1738033, 51.5123565 ] ] } },
{ "type": "Feature", "properties": { }, "geometry": { "type": "LineString", "coordinates": [ [ 104.184697, 51.5083944 ], [ 104.1839663, 51.5083955 ], [ 104.1834352, 51.5084355 ], [ 104.1831134, 51.5084756 ], [ 104.1825769, 51.5085858 ], [ 104.1823409, 51.5086592 ], [ 104.1820888, 51.5087627 ], [ 104.1817186, 51.5089364 ], [ 104.1810964, 51.5092769 ] ] } },
{ "type": "Feature", "properties": { }, "geometry": { "type": "LineString", "coordinates": [ [ 104.1851704, 51.5084389 ], [ 104.1845189, 51.5084723 ], [ 104.1841433, 51.5085257 ], [ 104.1838429, 51.5085824 ], [ 104.1834996, 51.5086826 ], [ 104.1832207, 51.5088028 ], [ 104.1829846, 51.5089197 ], [ 104.1818849, 51.509564 ] ] } },
{ "type": "Feature", "properties": { }, "geometry": { "type": "LineString", "coordinates": [ [ 104.1862793, 51.508532 ], [ 104.1859784, 51.5085339 ], [ 104.1857205, 51.5085424 ], [ 104.1853289, 51.5085991 ], [ 104.1849641, 51.5086993 ], [ 104.1845349, 51.5088562 ], [ 104.1842775, 51.5089898 ], [ 104.1839358, 51.5091979 ], [ 104.1827379, 51.509928 ], [ 104.1815339, 51.5106682 ], [ 104.1814075, 51.5107459 ] ] } },
{ "type": "Feature", "properties": { }, "geometry": { "type": "LineString", "coordinates": [ [ 104.1839358, 51.5091979 ], [ 104.1834621, 51.5094238 ], [ 104.1829095, 51.509751 ], [ 104.181842, 51.510372 ] ] } },
{ "type": "Feature", "properties": { }, "geometry": { "type": "LineString", "coordinates": [ [ 104.1947489, 51.508265 ], [ 104.1944682, 51.5084096 ], [ 104.1941724, 51.5085783 ], [ 104.1930509, 51.5091383 ], [ 104.192298, 51.5095853 ], [ 104.1911714, 51.5102543 ], [ 104.189439, 51.5112985 ], [ 104.1888155, 51.5116777 ], [ 104.1886171, 51.5117984 ], [ 104.188463, 51.5118739 ], [ 104.1880006, 51.5121733 ], [ 104.1872266, 51.5126134 ], [ 104.1870806, 51.5126964 ], [ 104.1860532, 51.5132806 ] ] } },
{ "type": "Feature", "properties": { }, "geometry": { "type": "LineString", "coordinates": [ [ 104.1886171, 51.5117984 ], [ 104.1888854, 51.5116766 ], [ 104.1891827, 51.5115291 ], [ 104.1895331, 51.5113418 ], [ 104.1895933, 51.5113176 ], [ 104.1896959, 51.5112758 ], [ 104.1900215, 51.5111656 ], [ 104.1901426, 51.5111109 ], [ 104.190202, 51.5110841 ], [ 104.1906904, 51.5108903 ], [ 104.1908886, 51.510811 ] ] } },
{ "type": "Feature", "properties": { }, "geometry": { "type": "LineString", "coordinates": [ [ 104.1901426, 51.5111109 ], [ 104.1900003, 51.5111965 ], [ 104.1898658, 51.5112802 ], [ 104.1895296, 51.5115004 ] ] } },
{ "type": "Feature", "properties": { }, "geometry": { "type": "LineString", "coordinates": [ [ 104.1895296, 51.5115004 ], [ 104.1884801, 51.5121175 ] ] } },
{ "type": "Feature", "properties": { }, "geometry": { "type": "LineString", "coordinates": [ [ 104.192298, 51.5095853 ], [ 104.1915454, 51.5099112 ], [ 104.1913694, 51.509982 ], [ 104.1886305, 51.5110852 ], [ 104.1875247, 51.5115356 ], [ 104.1872726, 51.511657 ], [ 104.1870693, 51.5117734 ], [ 104.1866791, 51.5119885 ], [ 104.1860692, 51.5123326 ], [ 104.1846707, 51.513165 ], [ 104.1832437, 51.5139265 ], [ 104.18289, 51.5141011 ], [ 104.1826705, 51.5141998 ], [ 104.1824591, 51.5142934 ], [ 104.1823493, 51.514349 ], [ 104.181646, 51.5147994 ], [ 104.1814834, 51.5148829 ], [ 104.1809142, 51.5151308 ], [ 104.1807069, 51.5152244 ], [ 104.1805646, 51.5152978 ], [ 104.180406, 51.515404 ], [ 104.1798775, 51.515738 ], [ 104.1795808, 51.5159176 ] ] } },
{ "type": "Feature", "properties": { }, "geometry": { "type": "LineString", "coordinates": [ [ 104.1846707, 51.513165 ], [ 104.1849594, 51.5130334 ], [ 104.1852399, 51.5128841 ], [ 104.1864026, 51.5122086 ], [ 104.1869677, 51.5118771 ], [ 104.187358, 51.5116646 ], [ 104.1875979, 51.5115558 ], [ 104.1879312, 51.5114242 ], [ 104.1883052, 51.5112674 ], [ 104.1899192, 51.5106196 ], [ 104.190834, 51.5102376 ], [ 104.1910047, 51.5101667 ], [ 104.1913694, 51.509982 ] ] } },
{ "type": "Feature", "properties": { }, "geometry": { "type": "LineString", "coordinates": [ [ 104.1888155, 51.5116777 ], [ 104.1883616, 51.5118664 ], [ 104.1876502, 51.5121197 ], [ 104.1871654, 51.5123334 ], [ 104.1868964, 51.5124721 ], [ 104.1857249, 51.5131329 ], [ 104.1849321, 51.5136153 ] ] } },
{ "type": "Feature", "properties": { }, "geometry": { "type": "LineString", "coordinates": [ [ 104.1872266, 51.5126134 ], [ 104.1870521, 51.5127629 ], [ 104.1869389, 51.5128664 ], [ 104.1868362, 51.5129875 ], [ 104.1866416, 51.5132518 ], [ 104.1865177, 51.5134368 ], [ 104.1864646, 51.5134864 ], [ 104.1864009, 51.513536 ], [ 104.186316, 51.5135932 ] ] } },
{ "type": "Feature", "properties": { }, "geometry": { "type": "LineString", "coordinates": [ [ 104.1967677, 51.5075918 ], [ 104.1963779, 51.507768 ], [ 104.1961899, 51.5078677 ] ] } }
]
}
