{
  "type": "FeatureCollection",
  "generator": "overpass-turbo",
  "copyright": "The data included in this document is from www.openstreetmap.org. The data is made available under ODbL.",
  "timestamp": "2026-04-27T05:53:58Z",
  "features": [
    {
      "type": "Feature",
      "properties": {
        "@id": "way/401566270",
        "amenity": "parking"
      },
      "geometry": {
        "type": "Polygon",
        "coordinates": [
          [
            [
              104.1216748,
              51.5100862
            ],
            [
              104.1211814,
              51.5099394
            ],
            [
              104.121034,
              51.5097648
            ],
            [
              104.1215086,
              51.5095771
            ],
            [
              104.1214639,
              51.5094837
            ],
            [
              104.121823,
              51.5093982
            ],
            [
              104.1220851,
              51.509304
            ],
            [
              104.1223329,
              51.5095998
            ],
            [
              104.1217661,
              51.5097942
            ],
            [
              104.1216312,
              51.5098503
            ],
            [
              104.1217715,
              51.5100329
            ],
            [
              104.1216748,
              51.5100862
            ]
          ]
        ]
      },
      "id": "way/401566270"
    },
    {
      "type": "Feature",
      "properties": {
        "@id": "way/439843726",
        "amenity": "parking",
        "parking": "surface"
      },
      "geometry": {
        "type": "Polygon",
        "coordinates": [
          [
            [
              104.1513437,
              51.5172688
            ],
            [
              104.1513421,
              51.5171569
            ],
            [
              104.1517009,
              51.517155
            ],
            [
              104.1517025,
              51.5172668
            ],
            [
              104.1513437,
              51.5172688
            ]
          ]
        ]
      },
      "id": "way/439843726"
    },
    {
      "type": "Feature",
      "properties": {
        "@id": "way/503127850",
        "amenity": "parking"
      },
      "geometry": {
        "type": "Polygon",
        "coordinates": [
          [
            [
              104.1374611,
              51.5155077
            ],
            [
              104.1377248,
              51.5153744
            ],
            [
              104.1381619,
              51.5153183
            ],
            [
              104.1380771,
              51.5153648
            ],
            [
              104.1375313,
              51.5156391
            ],
            [
              104.1374399,
              51.515685
            ],
            [
              104.1374611,
              51.5155077
            ]
          ]
        ]
      },
      "id": "way/503127850"
    },
    {
      "type": "Feature",
      "properties": {
        "@id": "way/503127853",
        "amenity": "parking"
      },
      "geometry": {
        "type": "Polygon",
        "coordinates": [
          [
            [
              104.1370541,
              51.5149813
            ],
            [
              104.137155,
              51.5149086
            ],
            [
              104.1372913,
              51.5149923
            ],
            [
              104.1373939,
              51.5149406
            ],
            [
              104.1375726,
              51.5150397
            ],
            [
              104.1373709,
              51.5152038
            ],
            [
              104.1370541,
              51.5149813
            ]
          ]
        ]
      },
      "id": "way/503127853"
    },
    {
      "type": "Feature",
      "properties": {
        "@id": "way/503127866",
        "amenity": "parking",
        "hgv": "yes"
      },
      "geometry": {
        "type": "Polygon",
        "coordinates": [
          [
            [
              104.1302585,
              51.5178296
            ],
            [
              104.1316793,
              51.5175424
            ],
            [
              104.1316905,
              51.5176626
            ],
            [
              104.130352,
              51.5179105
            ],
            [
              104.1302585,
              51.5178296
            ]
          ]
        ]
      },
      "id": "way/503127866"
    },
    {
      "type": "Feature",
      "properties": {
        "@id": "way/616585083",
        "amenity": "parking"
      },
      "geometry": {
        "type": "Polygon",
        "coordinates": [
          [
            [
              104.1486806,
              51.5221239
            ],
            [
              104.1491685,
              51.5221239
            ],
            [
              104.1493636,
              51.5228119
            ],
            [
              104.1487213,
              51.5228018
            ],
            [
              104.1486806,
              51.5221239
            ]
          ]
        ]
      },
      "id": "way/616585083"
    },
    {
      "type": "Feature",
      "properties": {
        "@id": "way/773655740",
        "amenity": "parking"
      },
      "geometry": {
        "type": "Polygon",
        "coordinates": [
          [
            [
              104.131782,
              51.520477
            ],
            [
              104.131996,
              51.520832
            ],
            [
              104.131599,
              51.520923
            ],
            [
              104.131385,
              51.520568
            ],
            [
              104.131782,
              51.520477
            ]
          ]
        ]
      },
      "id": "way/773655740"
    },
    {
      "type": "Feature",
      "properties": {
        "@id": "way/773655744",
        "amenity": "parking"
      },
      "geometry": {
        "type": "Polygon",
        "coordinates": [
          [
            [
              104.138572,
              51.522922
            ],
            [
              104.138626,
              51.523307
            ],
            [
              104.138107,
              51.523334
            ],
            [
              104.138053,
              51.522949
            ],
            [
              104.138572,
              51.522922
            ]
          ]
        ]
      },
      "id": "way/773655744"
    },
    {
      "type": "Feature",
      "properties": {
        "@id": "way/774942519",
        "amenity": "parking"
      },
      "geometry": {
        "type": "Polygon",
        "coordinates": [
          [
            [
              104.1454768,
              51.5061531
            ],
            [
              104.1450418,
              51.5062671
            ],
            [
              104.1447828,
              51.5058861
            ],
            [
              104.1452168,
              51.5057711
            ],
            [
              104.1454768,
              51.5061531
            ]
          ]
        ]
      },
      "id": "way/774942519"
    },
    {
      "type": "Feature",
      "properties": {
        "@id": "way/774942531",
        "amenity": "parking"
      },
      "geometry": {
        "type": "Polygon",
        "coordinates": [
          [
            [
              104.1415248,
              51.5098831
            ],
            [
              104.1417228,
              51.5101691
            ],
            [
              104.1413488,
              51.5102691
            ],
            [
              104.1411508,
              51.5099831
            ],
            [
              104.1415248,
              51.5098831
            ]
          ]
        ]
      },
      "id": "way/774942531"
    }
  ]
}